NORAD_CAT_ID,OBJECT_NAME,OBJECT_TYPE,EPOCH,MEAN_MOTION,ECCENTRICITY,INCLINATION,RA_OF_ASC_NODE,ARG_OF_PERICENTER,MEAN_ANOMALY,BSTAR,MEAN_MOTION_DOT,MEAN_MOTION_DDOT,TLE_LINE0,TLE_LINE1,TLE_LINE2,SEMIMAJOR_AXIS,PERIOD,APOGEE,PERIGEE,DECAYED
53267.0,STARLINK-4060,PAYLOAD,2023-01-30 22:50:45,15.08840204,0.00011,53.2157,243.6688,86.5886,273.5232,5.3381e-05,5.62e-06,0.0,0 STARLINK-4060,1 53267U 22086AB  23030.95192075  .00000562  00000-0  53381-4 0  9994,2 53267  53.2157 243.6688 0001100  86.5886 273.5232 15.08840204 29915,6917.88,95.438,540.506,538.984,0.0
53267.0,STARLINK-4060,PAYLOAD,2023-01-31 22:41:33,15.0883838,0.0001083,53.216,239.2081,82.4266,277.6849,3.0875e-05,2.04e-06,0.0,0 STARLINK-4060,1 53267U 22086AB  23031.94552389  .00000204  00000-0  30875-4 0  9998,2 53267  53.2160 239.2081 0001083  82.4266 277.6849 15.08838380 29881,6917.885,95.438,540.5,539.001,0.0
53267.0,STARLINK-4060,PAYLOAD,2023-02-01 13:00:01,15.08837104,0.0001153,53.215,236.5321,87.5564,272.556,1.6262e-05,-2.9e-07,0.0,0 STARLINK-4060,1 53267U 22086AB  23032.54168587 -.00000029  00000-0  16262-4 0  9998,2 53267  53.2150 236.5321 0001153  87.5564 272.5560 15.08837104 30151,6917.889,95.438,540.552,538.957,0.0
53267.0,STARLINK-4060,PAYLOAD,2023-02-02 06:29:16,15.08839324,0.0001132,53.2148,233.2609,87.467,272.6452,3.0267e-05,1.94e-06,0.0,0 STARLINK-4060,1 53267U 22086AB  23033.27032494  .00000194  00000-0  30267-4 0  9999,2 53267  53.2148 233.2609 0001132  87.4670 272.6452 15.08839324 30264,6917.882,95.438,540.531,538.964,0.0
53267.0,STARLINK-4060,PAYLOAD,2023-02-02 20:47:44,15.08839162,9.76e-05,53.2153,230.5855,85.1056,275.0047,7.437e-05,8.96e-06,0.0,0 STARLINK-4060,1 53267U 22086AB  23033.86648318  .00000896  00000-0  74370-4 0  9994,2 53267  53.2153 230.5855 0000976  85.1056 275.0047 15.08839162 30178,6917.883,95.438,540.423,539.073,0.0
53267.0,STARLINK-4060,PAYLOAD,2023-02-03 12:41:35,15.08839297,0.0001,53.2153,227.6113,85.252,274.8586,5.4435e-05,5.79e-06,0.0,0 STARLINK-4060,1 53267U 22086AB  23034.52888462  .00000579  00000-0  54435-4 0  9992,2 53267  53.2153 227.6113 0001000  85.2520 274.8586 15.08839297 30453,6917.883,95.438,540.439,539.056,0.0
53267.0,STARLINK-4060,PAYLOAD,2023-02-04 06:10:50,15.08841403,0.0001236,53.2144,224.3403,84.063,276.0503,6.1731e-05,6.95e-06,0.0,0 STARLINK-4060,1 53267U 22086AB  23035.25752321  .00000695  00000-0  61731-4 0  9993,2 53267  53.2144 224.3403 0001236  84.0630 276.0503 15.08841403 30386,6917.876,95.437,540.596,538.886,0.0
53267.0,STARLINK-4060,PAYLOAD,2023-02-04 12:32:22,15.08842134,0.0001238,53.2145,223.1508,84.0364,276.0769,4.3281e-05,4.01e-06,0.0,0 STARLINK-4060,1 53267U 22086AB  23035.52248301  .00000401  00000-0  43281-4 0  9996,2 53267  53.2145 223.1508 0001238  84.0364 276.0769 15.08842134 30607,6917.874,95.437,540.595,538.882,0.0
53267.0,STARLINK-4060,PAYLOAD,2023-02-04 22:04:41,15.08844141,0.0001111,53.215,221.3661,91.185,268.927,7.0736e-05,8.38e-06,0.0,0 STARLINK-4060,1 53267U 22086AB  23035.91991924  .00000838  00000-0  70736-4 0  9994,2 53267  53.2150 221.3661 0001111  91.1850 268.9270 15.08844141 30665,6917.868,95.437,540.501,538.964,0.0
53267.0,STARLINK-4060,PAYLOAD,2023-02-05 10:47:46,15.08837263,0.0001145,53.2148,218.9867,92.5086,267.6038,-1.0949e-05,-4.62e-06,0.0,0 STARLINK-4060,1 53267U 22086AB  23036.44984633 -.00000462  00000-0 -10949-4 0  9997,2 53267  53.2148 218.9867 0001145  92.5086 267.6038 15.08837263 30569,6917.889,95.438,540.546,538.962,0.0
53267.0,STARLINK-4060,PAYLOAD,2023-02-05 18:44:42,15.08839166,0.000107,53.2152,217.5002,92.1488,267.9627,-3.1294e-06,-3.38e-06,0.0,0 STARLINK-4060,1 53267U 22086AB  23036.78104483 -.00000338  00000-0 -31294-5 0  9990,2 53267  53.2152 217.5002 0001070  92.1488 267.9627 15.08839166 30795,6917.883,95.438,540.488,539.008,0.0
53267.0,STARLINK-4060,PAYLOAD,2023-02-06 10:38:33,15.08838228,0.0001064,53.2154,214.5266,91.23,268.8814,2.7013e-05,1.42e-06,0.0,0 STARLINK-4060,1 53267U 22086AB  23037.44344536  .00000142  00000-0  27013-4 0  9993,2 53267  53.2154 214.5266 0001064  91.2300 268.8814 15.08838228 30899,6917.886,95.438,540.487,539.015,0.0
53267.0,STARLINK-4060,PAYLOAD,2023-02-06 18:35:29,15.08841446,0.0001035,53.2154,213.0398,91.0962,269.0149,8.0415e-05,9.92e-06,0.0,0 STARLINK-4060,1 53267U 22086AB  23037.77464196  .00000992  00000-0  80415-4 0  9992,2 53267  53.2154 213.0398 0001035  91.0962 269.0149 15.08841446 30765,6917.876,95.437,540.457,539.025,0.0
53267.0,STARLINK-4060,PAYLOAD,2023-02-07 12:04:44,15.08833832,0.0001052,53.2159,209.7694,92.3698,267.7415,2.6949e-05,1.41e-06,0.0,0 STARLINK-4060,1 53267U 22086AB  23038.50328902  .00000141  00000-0  26949-4 0  9996,2 53267  53.2159 209.7694 0001052  92.3698 267.7415 15.08833832 30873,6917.899,95.438,540.492,539.036,0.0
53267.0,STARLINK-4060,PAYLOAD,2023-02-07 18:26:16,15.08836803,0.0001065,53.216,208.5801,92.4425,267.6689,4.804e-05,4.77e-06,0.0,0 STARLINK-4060,1 53267U 22086AB  23038.76824715  .00000477  00000-0  48040-4 0  9995,2 53267  53.2160 208.5801 0001065  92.4425 267.6689 15.08836803 31093,6917.89,95.438,540.492,539.018,0.0
53267.0,STARLINK-4060,PAYLOAD,2023-02-08 11:55:31,15.08831324,0.0001097,53.2171,205.3095,92.5019,267.6099,5.3372e-05,5.62e-06,0.0,0 STARLINK-4060,1 53267U 22086AB  23039.49689199  .00000562  00000-0  53372-4 0  9990,2 53267  53.2171 205.3095 0001097  92.5019 267.6099 15.08831324 31201,6917.907,95.438,540.531,539.013,0.0
53267.0,STARLINK-4060,PAYLOAD,2023-02-08 15:06:17,15.08837844,0.0001235,53.2178,204.7146,98.6668,261.4464,2.4635e-05,1.04e-06,0.0,0 STARLINK-4060,1 53267U 22086AB  23039.62936972  .00000104  00000-0  24635-4 0  9991,2 53267  53.2178 204.7146 0001235  98.6668 261.4464 15.08837844 31042,6917.887,95.438,540.606,538.898,0.0
53267.0,STARLINK-4060,PAYLOAD,2023-02-08 18:17:03,15.08841371,0.0001218,53.2168,204.1189,89.9177,270.1955,9.7623e-06,-1.32e-06,0.0,0 STARLINK-4060,1 53267U 22086AB  23039.76184835 -.00000132  00000-0  97623-5 0  9999,2 53267  53.2168 204.1189 0001218  89.9177 270.1955 15.08841371 31245,6917.876,95.437,540.584,538.899,0.0
53267.0,STARLINK-4060,PAYLOAD,2023-02-09 11:46:18,15.08836638,0.0001079,53.2169,200.8487,88.9959,271.1157,5.8305e-05,6.4e-06,0.0,0 STARLINK-4060,1 53267U 22086AB  23040.49049089  .00000640  00000-0  58305-4 0  9998,2 53267  53.2169 200.8487 0001079  88.9959 271.1157 15.08836638 31359,6917.891,95.438,540.502,539.009,0.0
53267.0,STARLINK-4060,PAYLOAD,2023-02-09 18:07:50,15.08844396,0.0001135,53.2171,199.6591,89.6288,270.4834,0.00010512,1.386e-05,0.0,0 STARLINK-4060,1 53267U 22086AB  23040.75544518  .00001386  00000-0  10512-3 0  9999,2 53267  53.2171 199.6591 0001135  89.6288 270.4834 15.08844396 31218,6917.867,95.437,540.517,538.947,0.0
53267.0,STARLINK-4060,PAYLOAD,2023-02-10 03:40:09,15.08843918,0.0001078,53.2168,197.8744,82.6834,277.4281,2.2793e-05,7.5e-07,0.0,0 STARLINK-4060,1 53267U 22086AB  23041.15288759  .00000075  00000-0  22793-4 0  9995,2 53267  53.2168 197.8744 0001078  82.6834 277.4281 15.08843918 31458,6917.868,95.437,540.479,538.988,0.0
53267.0,STARLINK-4060,PAYLOAD,2023-02-10 14:47:51,15.08836455,0.0001148,53.2159,195.7924,91.6238,268.4886,6.774e-05,7.9e-06,0.0,0 STARLINK-4060,1 53267U 22086AB  23041.61657231  .00000790  00000-0  67740-4 0  9996,2 53267  53.2159 195.7924 0001148  91.6238 268.4886 15.08836455 31348,6917.891,95.438,540.55,538.962,0.0
53267.0,STARLINK-4060,PAYLOAD,2023-02-10 16:23:14,15.08838334,0.0001318,53.2169,195.4958,91.3067,268.8077,9.2312e-05,1.181e-05,0.0,0 STARLINK-4060,1 53267U 22086AB  23041.68281107  .00001181  00000-0  92312-4 0  9996,2 53267  53.2169 195.4958 0001318  91.3067 268.8077 15.08838334 31534,6917.885,95.438,540.662,538.839,0.0
53267.0,STARLINK-4060,PAYLOAD,2023-02-11 03:30:56,15.08848237,0.0001204,53.2166,193.4148,63.4536,296.658,2.9183e-05,1.77e-06,0.0,0 STARLINK-4060,1 53267U 22086AB  23042.14648569  .00000177  00000-0  29183-4 0  9997,2 53267  53.2166 193.4148 0001204  63.4536 296.6580 15.08848237 31424,6917.855,95.437,540.553,538.887,0.0
53267.0,STARLINK-4060,PAYLOAD,2023-02-11 19:24:47,15.08847034,0.000144,53.216,190.4394,85.4999,274.6158,4.5362e-05,4.34e-06,0.0,0 STARLINK-4060,1 53267U 22086AB  23042.80888608  .00000434  00000-0  45362-4 0  9993,2 53267  53.2160 190.4394 0001440  85.4999 274.6158 15.08847034 31709,6917.859,95.437,540.72,538.728,0.0
53267.0,STARLINK-4060,PAYLOAD,2023-02-12 03:21:44,15.08836796,0.0001127,53.2161,188.9536,94.1798,265.9323,9.1003e-06,-1.43e-06,0.0,0 STARLINK-4060,1 53267U 22086AB  23043.14009295 -.00000143  00000-0  91003-5 0  9990,2 53267  53.2161 188.9536 0001127  94.1798 265.9323 15.08836796 31571,6917.89,95.438,540.535,538.976,0.0
53267.0,STARLINK-4060,PAYLOAD,2023-02-12 09:43:16,15.08830011,0.0001095,53.215,187.7641,100.1688,259.9428,3.0352e-05,1.95e-06,0.0,0 STARLINK-4060,1 53267U 22086AB  23043.40505731  .00000195  00000-0  30352-4 0  9990,2 53267  53.2150 187.7641 0001095 100.1688 259.9428 15.08830011 31790,6917.911,95.438,540.533,539.018,0.0
53267.0,STARLINK-4060,PAYLOAD,2023-02-13 09:34:04,15.08834284,0.0001384,53.2155,183.301,107.1242,252.9902,1.9148e-05,1.7e-07,0.0,0 STARLINK-4060,1 53267U 22086AB  23044.39865784  .00000017  00000-0  19148-4 0  9999,2 53267  53.2155 183.3010 0001384 107.1242 252.9902 15.08834284 31764,6917.898,95.438,540.72,538.805,0.0
53267.0,STARLINK-4060,PAYLOAD,2023-02-14 01:27:54,15.08847968,0.0001494,53.2154,180.3307,97.1562,262.96,-4.8647e-06,-3.65e-06,0.0,0 STARLINK-4060,1 53267U 22086AB  23045.06104999 -.00000365  00000-0 -48647-5 0  9993,2 53267  53.2154 180.3307 0001494  97.1562 262.9600 15.08847968 31864,6917.856,95.437,540.755,538.688,0.0
53267.0,STARLINK-4060,PAYLOAD,2023-02-14 09:24:50,15.08843174,0.000207,53.2149,178.8444,98.0902,262.0325,2.4335e-05,9.9e-07,0.0,0 STARLINK-4060,1 53267U 22086AB  23045.39225514  .00000099  00000-0  24335-4 0  9995,2 53267  53.2149 178.8444 0002070  98.0902 262.0325 15.08843174 31917,6917.871,95.437,541.168,538.304,0.0
